NORAD_CAT_ID,OBJECT_NAME,OBJECT_TYPE,EPOCH,MEAN_MOTION,ECCENTRICITY,INCLINATION,RA_OF_ASC_NODE,ARG_OF_PERICENTER,MEAN_ANOMALY,BSTAR,MEAN_MOTION_DOT,MEAN_MOTION_DDOT,TLE_LINE0,TLE_LINE1,TLE_LINE2,SEMIMAJOR_AXIS,PERIOD,APOGEE,PERIGEE,DECAYED
53438.0,STARLINK-4526,PAYLOAD,2022-11-11 08:00:01,15.08825398,0.0001137,53.215,155.2197,73.8597,237.4959,0.00060944,9.421e-05,0.0,0 STARLINK-4526,1 53438U 22097BC  22315.33334491  .00009421  00000-0  60944-3 0  9998,2 53438  53.2150 155.2197 0001137  73.8597 237.4959 15.08825398 14982,6917.925,95.438,540.577,539.003,0.0
53438.0,STARLINK-4526,PAYLOAD,2022-11-11 14:00:01,15.088390400000002,0.0001192,53.215,154.0974,78.6745,151.3624,0.00043472,6.637e-05,0.0,0 STARLINK-4526,1 53438U 22097BC  22315.58334491  .00006637  00000-0  43472-3 0  9998,2 53438  53.2150 154.0974 0001192  78.6745 151.3624 15.08839040  1305,6917.8830000000025,95.438,540.573,538.924,0.0
53438.0,STARLINK-4526,PAYLOAD,2022-11-11 22:00:00,15.08827492,0.0001286,53.215,152.6026,65.8177,175.8222,0.001677,0.00026493,0.0,0 STARLINK-4526,1 53438U 22097BC  22315.91667824  .00026493  00000-0  16770-2 0  9996,2 53438  53.2150 152.6026 0001286  65.8177 175.8222 15.08827492  1301,6917.919,95.438,540.673,538.894,0.0
53438.0,STARLINK-4526,PAYLOAD,2022-11-12 14:00:01,15.08858344,0.0001244,53.2151,149.608,76.4122,188.422,0.00026037,3.86e-05,0.0,0 STARLINK-4526,1 53438U 22097BC  22316.58334491  .00003860  00000-0  26037-3 0  9992,2 53438  53.2151 149.6080 0001244  76.4122 188.4220 15.08858344 15167,6917.824000000001,95.436,540.55,538.8290000000002,0.0
53438.0,STARLINK-4526,PAYLOAD,2022-11-13 00:00:00,15.08849482,0.0001364,53.2152,147.7392,63.3561,306.0021,-0.00014418,-2.582e-05,0.0,0 STARLINK-4526,1 53438U 22097BC  22317.00001157 -.00002582  00000-0 -14418-3 0  9992,2 53438  53.2152 147.7392 0001364  63.3561 306.0021 15.08849482  1309,6917.851,95.437,540.66,538.773,0.0
53438.0,STARLINK-4526,PAYLOAD,2022-11-13 06:00:02,15.08847488,0.0001356,53.2155,146.6154,69.7817,218.347,-0.001929,-0.00030863,0.0,0 STARLINK-4526,1 53438U 22097BC  22317.25002315 -.00030863  00000-0 -19290-2 0  9991,2 53438  53.2155 146.6154 0001356  69.7817 218.3470 15.08847488 15279,6917.858,95.437,540.661,538.784,0.0
53438.0,STARLINK-4526,PAYLOAD,2022-11-13 14:00:01,15.0884481,0.0001416,53.2157,145.1188,75.3738,224.2772,-0.00016864,-2.971e-05,0.0,0 STARLINK-4526,1 53438U 22097BC  22317.58334491 -.00002971  00000-0 -16864-3 0  9994,2 53438  53.2157 145.1188 0001416  75.3738 224.2772 15.08844810  1300,6917.866,95.437,540.71,538.751,0.0
53438.0,STARLINK-4526,PAYLOAD,2022-11-13 22:00:00,15.08821893,0.0001530999999999,53.2159,143.6241,65.3612,245.8943,0.0023171,0.00036763,0.0,0 STARLINK-4526,1 53438U 22097BC  22317.91667824  .00036763  00000-0  23171-2 0  9992,2 53438  53.2159 143.6241 0001531  65.3612 245.8943 15.08821893  1308,6917.936,95.439,540.86,538.742,0.0
53438.0,STARLINK-4526,PAYLOAD,2022-11-14 14:00:01,15.08861274,0.0001435,53.2165,140.6291,74.0362,260.4066,-0.00048127,-7.944e-05,0.0,0 STARLINK-4526,1 53438U 22097BC  22318.58334491 -.00007944  00000-0 -48127-3 0  9997,2 53438  53.2165 140.6291 0001435  74.0362 260.4066 15.08861274 15478,6917.815,95.436,540.673,538.688,0.0
53438.0,STARLINK-4526,PAYLOAD,2022-11-14 22:00:00,15.08842698,0.0001499,53.2165,139.135,63.8598,282.2019,-0.00043358,-7.182e-05,0.0,0 STARLINK-4526,1 53438U 22097BC  22318.91667824 -.00007182  00000-0 -43358-3 0  9998,2 53438  53.2165 139.1350 0001499  63.8598 282.2019 15.08842698  1300,6917.871999999999,95.437,540.774,538.7,0.0
53438.0,STARLINK-4526,PAYLOAD,2022-11-15 14:00:01,15.08848176,0.0001353,53.217,136.1409,71.6922,297.5468,-0.00097734,-0.00015812,0.0,0 STARLINK-4526,1 53438U 22097BC  22319.58334491 -.00015812  00000-0 -97734-3 0  9999,2 53438  53.2170 136.1409 0001353  71.6922 297.5468 15.08848176  1309,6917.855,95.437,540.656,538.784,0.0
53438.0,STARLINK-4526,PAYLOAD,2022-11-15 18:00:02,15.08841139,0.0001422,53.2167,135.3936,65.6263,129.4773,-0.00097545,-0.00015779,0.0,0 STARLINK-4526,1 53438U 22097BC  22319.75002315 -.00015779  00000-0 -97545-3 0  9997,2 53438  53.2167 135.3936 0001422  65.6263 129.4773 15.08841139 15645,6917.877,95.437,540.726,538.758,0.0
53438.0,STARLINK-4526,PAYLOAD,2022-11-15 22:00:00,15.08816689,0.0001440999999999,53.2168,134.64600000000002,62.5872,318.2548,0.0026143,0.00041537,0.0,0 STARLINK-4526,1 53438U 22097BC  22319.91667824  .00041537  00000-0  26143-2 0  9991,2 53438  53.2168 134.6460 0001441  62.5872 318.2548 15.08816689  1301,6917.9519999999975,95.439,540.814,538.82,0.0
53438.0,STARLINK-4526,PAYLOAD,2022-11-16 14:00:01,15.08884156,0.0001291,53.2173,131.6495,71.3553,332.7224,-0.0057028,-0.00090023,0.0,0 STARLINK-4526,1 53438U 22097BC  22320.58335648 -.00090023  00000-0 -57028-2 0  9994,2 53438  53.2173 131.6495 0001291  71.3553 332.7224 15.08884156 15771,6917.745,95.435,540.504,538.717,0.0
53438.0,STARLINK-4526,PAYLOAD,2022-11-16 22:00:08,15.08781957,0.0001302,53.2173,130.1533,61.7775,354.2983,0.0050953999999999,0.00081615,0.0,0 STARLINK-4526,1 53438U 22097BC  22320.91675926  .00081615  00000-0  50954-2 0  9993,2 53438  53.2173 130.1533 0001302  61.7775 354.2983 15.08781957  1300,6918.058000000001,95.441,540.8240000000002,539.0219999999998,0.0
53438.0,STARLINK-4526,PAYLOAD,2022-11-17 06:00:00,15.0881261,0.0001393,53.2167,128.6591,72.8888,354.2893,0.0008187999999999,0.00012757,0.0,0 STARLINK-4526,1 53438U 22097BC  22321.25001157  .00012757  00000-0  81880-3 0  9994,2 53438  53.2167 128.6591 0001393  72.8888 354.2893 15.08812610 15875,6917.964,95.439,540.793,538.865,0.0
53438.0,STARLINK-4526,PAYLOAD,2022-11-17 14:00:01,15.08843759,0.0001439,53.2166,127.1633,73.7471,4.9949,-0.0016644,-0.00026682,0.0,0 STARLINK-4526,1 53438U 22097BC  22321.58334491 -.00026682  00000-0 -16644-2 0  9999,2 53438  53.2166 127.1633 0001439  73.7471   4.9949 15.08843759  1306,6917.869000000002,95.437,540.729,538.738,0.0
53438.0,STARLINK-4526,PAYLOAD,2022-11-17 22:00:00,15.08807599,0.0001485,53.2162,125.6682,65.2068,25.1283,0.0028432,0.00045212,0.0,0 STARLINK-4526,1 53438U 22097BC  22321.91667824  .00045212  00000-0  28432-2 0  9991,2 53438  53.2162 125.6682 0001485  65.2068  25.1283 15.08807599  1306,6917.979,95.44,540.872,538.817,0.0
53438.0,STARLINK-4526,PAYLOAD,2022-11-18 14:00:01,15.0885304,0.0001453,53.216,122.6743,73.8905,39.6012,-0.001825,-0.00029226,0.0,0 STARLINK-4526,1 53438U 22097BC  22322.58334491 -.00029226  00000-0 -18250-2 0  9992,2 53438  53.2160 122.6743 0001453  73.8905  39.6012 15.08853040 16071,6917.840999999999,95.437,540.711,538.7,0.0
53438.0,STARLINK-4526,PAYLOAD,2022-11-18 22:00:00,15.08930763,0.0001535,53.217,121.1753,68.1291,56.9798,-0.0090158,-0.00141324,0.0,0 STARLINK-4526,1 53438U 22097BC  22322.91667824 -.00141324  00000-0 -90158-2 0  9999,2 53438  53.2170 121.1753 0001535  68.1291  56.9798 15.08930763  1304,6917.603,95.432,540.53,538.406,0.0
53438.0,STARLINK-4526,PAYLOAD,2022-11-19 14:00:01,15.08865095,0.0001486,53.2156,118.185,72.577,75.7067,-0.00171,-0.00027418,0.0,0 STARLINK-4526,1 53438U 22097BC  22323.58334491 -.00027418  00000-0 -17100-2 0  9997,2 53438  53.2156 118.1850 0001486  72.5770  75.7067 15.08865095  1301,6917.804,95.436,540.697,538.641,0.0
53438.0,STARLINK-4526,PAYLOAD,2022-11-19 22:00:00,15.0884607,0.0001568,53.2153,116.6895,64.2102,95.6903,0.00091636,0.00014328,0.0,0 STARLINK-4526,1 53438U 22097BC  22323.91667824  .00014328  00000-0  91636-3 0  9994,2 53438  53.2153 116.6895 0001568  64.2102  95.6903 15.08846070  1300,6917.861999999999,95.437,540.812,538.6419999999998,0.0
53438.0,STARLINK-4526,PAYLOAD,2022-11-20 14:00:01,15.08849321,0.0001652,53.2156,113.6956,71.6115,111.4869,-0.0016082,-0.00025798,0.0,0 STARLINK-4526,1 53438U 22097BC  22324.58334491 -.00025798  00000-0 -16082-2 0  9995,2 53438  53.2156 113.6956 0001652  71.6115 111.4869 15.08849321 16371,6917.852,95.437,540.86,538.5740000000002,0.0
53438.0,STARLINK-4526,PAYLOAD,2022-11-20 22:00:00,15.08825928,0.0001688,53.2155,112.2,64.4484,130.2469,0.0020283,0.00032128,0.0,0 STARLINK-4526,1 53438U 22097BC  22324.91667824  .00032128  00000-0  20283-2 0  9992,2 53438  53.2155 112.2000 0001688  64.4484 130.2469 15.08825928  1302,6917.9230000000025,95.438,540.956,538.621,0.0
53438.0,STARLINK-4526,PAYLOAD,2022-11-21 08:00:01,15.08841975,0.0001564999999999,53.2158,110.3273,72.6407,226.5585,0.00040379,6.145e-05,0.0,0 STARLINK-4526,1 53438U 22097BC  22325.33334491  .00006145  00000-0  40379-3 0  9999,2 53438  53.2158 110.3273 0001565  72.6407 226.5585 15.08841975 16490,6917.874,95.437,540.822,538.6569999999998,0.0
53438.0,STARLINK-4526,PAYLOAD,2022-11-21 14:00:01,15.08850161,0.0001603,53.216,109.2062,68.1546,149.7465,-0.0023621,-0.00037695,0.0,0 STARLINK-4526,1 53438U 22097BC  22325.58334491 -.00037695  00000-0 -23621-2 0  9992,2 53438  53.2160 109.2062 0001603  68.1546 149.7465 15.08850161  1307,6917.849,95.437,540.823,538.605,0.0
53438.0,STARLINK-4526,PAYLOAD,2022-11-22 00:00:00,15.08850579,0.000158,53.2161,107.3359,62.4957,259.8879,-0.0014257,-0.00022913,0.0,0 STARLINK-4526,1 53438U 22097BC  22326.00001157 -.00022913  00000-0 -14257-2 0  9992,2 53438  53.2161 107.3359 0001580  62.4957 259.8879 15.08850579  1308,6917.848000000001,95.437,540.806,538.62,0.0
53438.0,STARLINK-4526,PAYLOAD,2022-11-22 08:00:01,15.08824735,0.0001527,53.2166,105.838,70.585,263.4018,0.0028664,0.00045607,0.0,0 STARLINK-4526,1 53438U 22097BC  22326.33334491  .00045607  00000-0  28664-2 0  9998,2 53438  53.2166 105.8380 0001527  70.5850 263.4018 15.08824735 16647,6917.927,95.439,540.8480000000002,538.736,0.0
53438.0,STARLINK-4526,PAYLOAD,2022-11-22 14:00:01,15.08865802,0.0001573,53.2167,104.717,65.8449,186.8961,-0.0026189,-0.00041756,0.0,0 STARLINK-4526,1 53438U 22097BC  22326.58335648 -.00041756  00000-0 -26189-2 0  9993,2 53438  53.2167 104.7170 0001573  65.8449 186.8961 15.08865802  1307,6917.802,95.436,540.755,538.578,0.0
